[{"OBJECT_NAME":"STARLINK-36626","OBJECT_ID":"2026-018Q","EPOCH":"2026-03-09T17:10:19.772832","MEAN_MOTION":15.75197664,"ECCENTRICITY":0.00010571,"INCLINATION":97.2834,"RA_OF_ASC_NODE":134.5546,"ARG_OF_PERICENTER":90.6653,"MEAN_ANOMALY":269.4733,"EPHEMERIS_TYPE":0,"CLASSIFICATION_TYPE":"U","NORAD_CAT_ID":67603,"ELEMENT_SET_NO":999,"REV_AT_EPOCH":731,"BSTAR":0.001426661,"MEAN_MOTION_DOT":0.00218266,"MEAN_MOTION_DDOT":0},{"OBJECT_NAME":"FENGYUN 1C DEB","OBJECT_ID":"1999-025CUE","EPOCH":"2026-02-18T09:12:07.487136","MEAN_MOTION":15.64460458,"ECCENTRICITY":0.00384301,"INCLINATION":98.1181,"RA_OF_ASC_NODE":202.4936,"ARG_OF_PERICENTER":104.8925,"MEAN_ANOMALY":255.6593,"EPHEMERIS_TYPE":0,"CLASSIFICATION_TYPE":"U","NORAD_CAT_ID":32184,"ELEMENT_SET_NO":999,"REV_AT_EPOCH":99453,"BSTAR":0.002023567,"MEAN_MOTION_DOT":0.00206139,"MEAN_MOTION_DDOT":0}]
